<?xml version="1.0" encoding="UTF-8"?>
<ndm xmlns:xsi="http://www.w3.org/2001/XMLSchema-instance" xsi:noNamespaceSchemaLocation="https://sanaregistry.org/r/ndmxml_unqualified/ndmxml-2.0.0-master-2.0.xsd">
<omm id="CCSDS_OMM_VERS" version="2.0">
<header><CREATION_DATE/><ORIGINATOR/></header><body><segment><metadata><OBJECT_NAME>KUIPER-00018</OBJECT_NAME><OBJECT_ID>2025-088K</OBJECT_ID><CENTER_NAME>EARTH</CENTER_NAME><REF_FRAME>TEME</REF_FRAME><TIME_SYSTEM>UTC</TIME_SYSTEM><MEAN_ELEMENT_THEORY>SGP4</MEAN_ELEMENT_THEORY></metadata><data><meanElements><EPOCH>2025-12-30T12:06:05.762304</EPOCH><MEAN_MOTION>14.79965084</MEAN_MOTION><ECCENTRICITY>.00126331</ECCENTRICITY><INCLINATION>51.9042</INCLINATION><RA_OF_ASC_NODE>46.4895</RA_OF_ASC_NODE><ARG_OF_PERICENTER>219.7462</ARG_OF_PERICENTER><MEAN_ANOMALY>140.2576</MEAN_ANOMALY></meanElements><tleParameters><EPHEMERIS_TYPE>0</EPHEMERIS_TYPE><CLASSIFICATION_TYPE>U</CLASSIFICATION_TYPE><NORAD_CAT_ID>63733</NORAD_CAT_ID><ELEMENT_SET_NO>999</ELEMENT_SET_NO><REV_AT_EPOCH>3724</REV_AT_EPOCH><BSTAR>.12262161E-2</BSTAR><MEAN_MOTION_DOT>.9156E-4</MEAN_MOTION_DOT><MEAN_MOTION_DDOT>0</MEAN_MOTION_DDOT></tleParameters></data></segment></body></omm>
<omm id="CCSDS_OMM_VERS" version="2.0">
<header><CREATION_DATE/><ORIGINATOR/></header><body><segment><metadata><OBJECT_NAME>KUIPER-00019</OBJECT_NAME><OBJECT_ID>2025-088L</OBJECT_ID><CENTER_NAME>EARTH</CENTER_NAME><REF_FRAME>TEME</REF_FRAME><TIME_SYSTEM>UTC</TIME_SYSTEM><MEAN_ELEMENT_THEORY>SGP4</MEAN_ELEMENT_THEORY></metadata><data><meanElements><EPOCH>2025-12-30T12:07:48.251712</EPOCH><MEAN_MOTION>14.79969529</MEAN_MOTION><ECCENTRICITY>.00085005</ECCENTRICITY><INCLINATION>51.9010</INCLINATION><RA_OF_ASC_NODE>45.0291</RA_OF_ASC_NODE><ARG_OF_PERICENTER>229.4569</ARG_OF_PERICENTER><MEAN_ANOMALY>130.5654</MEAN_ANOMALY></meanElements><tleParameters><EPHEMERIS_TYPE>0</EPHEMERIS_TYPE><CLASSIFICATION_TYPE>U</CLASSIFICATION_TYPE><NORAD_CAT_ID>63734</NORAD_CAT_ID><ELEMENT_SET_NO>999</ELEMENT_SET_NO><REV_AT_EPOCH>3726</REV_AT_EPOCH><BSTAR>.75821484E-3</BSTAR><MEAN_MOTION_DOT>.557E-4</MEAN_MOTION_DOT><MEAN_MOTION_DDOT>0</MEAN_MOTION_DDOT></tleParameters></data></segment></body></omm>
<omm id="CCSDS_OMM_VERS" version="2.0">
<header><CREATION_DATE/><ORIGINATOR/></header><body><segment><metadata><OBJECT_NAME>KUIPER-00020</OBJECT_NAME><OBJECT_ID>2025-088M</OBJECT_ID><CENTER_NAME>EARTH</CENTER_NAME><REF_FRAME>TEME</REF_FRAME><TIME_SYSTEM>UTC</TIME_SYSTEM><MEAN_ELEMENT_THEORY>SGP4</MEAN_ELEMENT_THEORY></metadata><data><meanElements><EPOCH>2025-12-30T12:02:30.062112</EPOCH><MEAN_MOTION>14.79872491</MEAN_MOTION><ECCENTRICITY>.00080541</ECCENTRICITY><INCLINATION>51.9044</INCLINATION><RA_OF_ASC_NODE>49.0297</RA_OF_ASC_NODE><ARG_OF_PERICENTER>212.2879</ARG_OF_PERICENTER><MEAN_ANOMALY>147.7591</MEAN_ANOMALY></meanElements><tleParameters><EPHEMERIS_TYPE>0</EPHEMERIS_TYPE><CLASSIFICATION_TYPE>U</CLASSIFICATION_TYPE><NORAD_CAT_ID>63735</NORAD_CAT_ID><ELEMENT_SET_NO>999</ELEMENT_SET_NO><REV_AT_EPOCH>3741</REV_AT_EPOCH><BSTAR>-.13441067E-3</BSTAR><MEAN_MOTION_DOT>-.1247E-4</MEAN_MOTION_DOT><MEAN_MOTION_DDOT>0</MEAN_MOTION_DDOT></tleParameters></data></segment></body></omm>
<omm id="CCSDS_OMM_VERS" version="2.0">
<header><CREATION_DATE/><ORIGINATOR/></header><body><segment><metadata><OBJECT_NAME>KUIPER-00021</OBJECT_NAME><OBJECT_ID>2025-088N</OBJECT_ID><CENTER_NAME>EARTH</CENTER_NAME><REF_FRAME>TEME</REF_FRAME><TIME_SYSTEM>UTC</TIME_SYSTEM><MEAN_ELEMENT_THEORY>SGP4</MEAN_ELEMENT_THEORY></metadata><data><meanElements><EPOCH>2025-12-30T13:37:18.118848</EPOCH><MEAN_MOTION>14.79889412</MEAN_MOTION><ECCENTRICITY>.00062875</ECCENTRICITY><INCLINATION>51.9018</INCLINATION><RA_OF_ASC_NODE>49.7362</RA_OF_ASC_NODE><ARG_OF_PERICENTER>206.5700</ARG_OF_PERICENTER><MEAN_ANOMALY>153.4941</MEAN_ANOMALY></meanElements><tleParameters><EPHEMERIS_TYPE>0</EPHEMERIS_TYPE><CLASSIFICATION_TYPE>U</CLASSIFICATION_TYPE><NORAD_CAT_ID>63736</NORAD_CAT_ID><ELEMENT_SET_NO>999</ELEMENT_SET_NO><REV_AT_EPOCH>3724</REV_AT_EPOCH><BSTAR>-.1039371E-3</BSTAR><MEAN_MOTION_DOT>-.1014E-4</MEAN_MOTION_DOT><MEAN_MOTION_DDOT>0</MEAN_MOTION_DDOT></tleParameters></data></segment></body></omm>
<omm id="CCSDS_OMM_VERS" version="2.0">
<header><CREATION_DATE/><ORIGINATOR/></header><body><segment><metadata><OBJECT_NAME>KUIPER-00023</OBJECT_NAME><OBJECT_ID>2025-088P</OBJECT_ID><CENTER_NAME>EARTH</CENTER_NAME><REF_FRAME>TEME</REF_FRAME><TIME_SYSTEM>UTC</TIME_SYSTEM><MEAN_ELEMENT_THEORY>SGP4</MEAN_ELEMENT_THEORY></metadata><data><meanElements><EPOCH>2025-12-30T13:36:01.366272</EPOCH><MEAN_MOTION>14.79959400</MEAN_MOTION><ECCENTRICITY>.00106546</ECCENTRICITY><INCLINATION>51.9003</INCLINATION><RA_OF_ASC_NODE>51.2079</RA_OF_ASC_NODE><ARG_OF_PERICENTER>225.9764</ARG_OF_PERICENTER><MEAN_ANOMALY>134.0321</MEAN_ANOMALY></meanElements><tleParameters><EPHEMERIS_TYPE>0</EPHEMERIS_TYPE><CLASSIFICATION_TYPE>U</CLASSIFICATION_TYPE><NORAD_CAT_ID>63737</NORAD_CAT_ID><ELEMENT_SET_NO>999</ELEMENT_SET_NO><REV_AT_EPOCH>3752</REV_AT_EPOCH><BSTAR>.27880758E-2</BSTAR><MEAN_MOTION_DOT>.21131E-3</MEAN_MOTION_DOT><MEAN_MOTION_DDOT>0</MEAN_MOTION_DDOT></tleParameters></data></segment></body></omm>
<omm id="CCSDS_OMM_VERS" version="2.0">
<header><CREATION_DATE/><ORIGINATOR/></header><body><segment><metadata><OBJECT_NAME>KUIPER-00024</OBJECT_NAME><OBJECT_ID>2025-088Q</OBJECT_ID><CENTER_NAME>EARTH</CENTER_NAME><REF_FRAME>TEME</REF_FRAME><TIME_SYSTEM>UTC</TIME_SYSTEM><MEAN_ELEMENT_THEORY>SGP4</MEAN_ELEMENT_THEORY></metadata><data><meanElements><EPOCH>2025-12-30T12:17:57.012288</EPOCH><MEAN_MOTION>14.79937892</MEAN_MOTION><ECCENTRICITY>.00006611</ECCENTRICITY><INCLINATION>51.9054</INCLINATION><RA_OF_ASC_NODE>38.9945</RA_OF_ASC_NODE><ARG_OF_PERICENTER>159.6995</ARG_OF_PERICENTER><MEAN_ANOMALY>200.3994</MEAN_ANOMALY></meanElements><tleParameters><EPHEMERIS_TYPE>0</EPHEMERIS_TYPE><CLASSIFICATION_TYPE>U</CLASSIFICATION_TYPE><NORAD_CAT_ID>63738</NORAD_CAT_ID><ELEMENT_SET_NO>999</ELEMENT_SET_NO><REV_AT_EPOCH>3781</REV_AT_EPOCH><BSTAR>.13985115E-2</BSTAR><MEAN_MOTION_DOT>.10458E-3</MEAN_MOTION_DOT><MEAN_MOTION_DDOT>0</MEAN_MOTION_DDOT></tleParameters></data></segment></body></omm>
<omm id="CCSDS_OMM_VERS" version="2.0">
<header><CREATION_DATE/><ORIGINATOR/></header><body><segment><metadata><OBJECT_NAME>KUIPER-00025</OBJECT_NAME><OBJECT_ID>2025-088R</OBJECT_ID><CENTER_NAME>EARTH</CENTER_NAME><REF_FRAME>TEME</REF_FRAME><TIME_SYSTEM>UTC</TIME_SYSTEM><MEAN_ELEMENT_THEORY>SGP4</MEAN_ELEMENT_THEORY></metadata><data><meanElements><EPOCH>2025-12-30T13:40:54.254496</EPOCH><MEAN_MOTION>14.80048492</MEAN_MOTION><ECCENTRICITY>.00010479</ECCENTRICITY><INCLINATION>51.9030</INCLINATION><RA_OF_ASC_NODE>47.2513</RA_OF_ASC_NODE><ARG_OF_PERICENTER>29.3445</ARG_OF_PERICENTER><MEAN_ANOMALY>330.7577</MEAN_ANOMALY></meanElements><tleParameters><EPHEMERIS_TYPE>0</EPHEMERIS_TYPE><CLASSIFICATION_TYPE>U</CLASSIFICATION_TYPE><NORAD_CAT_ID>63739</NORAD_CAT_ID><ELEMENT_SET_NO>999</ELEMENT_SET_NO><REV_AT_EPOCH>3756</REV_AT_EPOCH><BSTAR>.73313332E-3</BSTAR><MEAN_MOTION_DOT>.5387E-4</MEAN_MOTION_DOT><MEAN_MOTION_DDOT>0</MEAN_MOTION_DDOT></tleParameters></data></segment></body></omm>
<omm id="CCSDS_OMM_VERS" version="2.0">
<header><CREATION_DATE/><ORIGINATOR/></header><body><segment><metadata><OBJECT_NAME>KUIPER-00027</OBJECT_NAME><OBJECT_ID>2025-088S</OBJECT_ID><CENTER_NAME>EARTH</CENTER_NAME><REF_FRAME>TEME</REF_FRAME><TIME_SYSTEM>UTC</TIME_SYSTEM><MEAN_ELEMENT_THEORY>SGP4</MEAN_ELEMENT_THEORY></metadata><data><meanElements><EPOCH>2025-12-30T12:14:02.922720</EPOCH><MEAN_MOTION>14.79950832</MEAN_MOTION><ECCENTRICITY>.00034973</ECCENTRICITY><INCLINATION>51.9015</INCLINATION><RA_OF_ASC_NODE>41.4904</RA_OF_ASC_NODE><ARG_OF_PERICENTER>303.9588</ARG_OF_PERICENTER><MEAN_ANOMALY>56.1041</MEAN_ANOMALY></meanElements><tleParameters><EPHEMERIS_TYPE>0</EPHEMERIS_TYPE><CLASSIFICATION_TYPE>U</CLASSIFICATION_TYPE><NORAD_CAT_ID>63740</NORAD_CAT_ID><ELEMENT_SET_NO>999</ELEMENT_SET_NO><REV_AT_EPOCH>3737</REV_AT_EPOCH><BSTAR>.10860141E-2</BSTAR><MEAN_MOTION_DOT>.8071E-4</MEAN_MOTION_DOT><MEAN_MOTION_DDOT>0</MEAN_MOTION_DDOT></tleParameters></data></segment></body></omm>
<omm id="CCSDS_OMM_VERS" version="2.0">
<header><CREATION_DATE/><ORIGINATOR/></header><body><segment><metadata><OBJECT_NAME>KUIPER-00028</OBJECT_NAME><OBJECT_ID>2025-088T</OBJECT_ID><CENTER_NAME>EARTH</CENTER_NAME><REF_FRAME>TEME</REF_FRAME><TIME_SYSTEM>UTC</TIME_SYSTEM><MEAN_ELEMENT_THEORY>SGP4</MEAN_ELEMENT_THEORY></metadata><data><meanElements><EPOCH>2025-12-30T12:39:35.066880</EPOCH><MEAN_MOTION>14.79774829</MEAN_MOTION><ECCENTRICITY>.00039468</ECCENTRICITY><INCLINATION>51.9008</INCLINATION><RA_OF_ASC_NODE>39.3917</RA_OF_ASC_NODE><ARG_OF_PERICENTER>315.8918</ARG_OF_PERICENTER><MEAN_ANOMALY>44.1729</MEAN_ANOMALY></meanElements><tleParameters><EPHEMERIS_TYPE>0</EPHEMERIS_TYPE><CLASSIFICATION_TYPE>U</CLASSIFICATION_TYPE><NORAD_CAT_ID>63741</NORAD_CAT_ID><ELEMENT_SET_NO>999</ELEMENT_SET_NO><REV_AT_EPOCH>3781</REV_AT_EPOCH><BSTAR>.77484831E-3</BSTAR><MEAN_MOTION_DOT>.5669E-4</MEAN_MOTION_DOT><MEAN_MOTION_DDOT>0</MEAN_MOTION_DDOT></tleParameters></data></segment></body></omm>

</ndm>
